[{"OBJECT_NAME":"PROTOMETHEE","OBJECT_ID":"2023-174BT","EPOCH":"2026-03-09T23:28:08.029344","MEAN_MOTION":15.30202663,"ECCENTRICITY":0.00088339,"INCLINATION":97.3826,"RA_OF_ASC_NODE":147.9552,"ARG_OF_PERICENTER":148.5993,"MEAN_ANOMALY":211.5776,"EPHEMERIS_TYPE":0,"CLASSIFICATION_TYPE":"U","NORAD_CAT_ID":58321,"ELEMENT_SET_NO":999,"REV_AT_EPOCH":12979,"BSTAR":0.00015715731,"MEAN_MOTION_DOT":4.52e-5,"MEAN_MOTION_DDOT":0},{"OBJECT_NAME":"STARLINK-32557","OBJECT_ID":"2024-222P","EPOCH":"2026-03-09T12:26:29.487840","MEAN_MOTION":15.27588888,"ECCENTRICITY":2.871e-5,"INCLINATION":42.9936,"RA_OF_ASC_NODE":126.5426,"ARG_OF_PERICENTER":322.7448,"MEAN_ANOMALY":37.3384,"EPHEMERIS_TYPE":0,"CLASSIFICATION_TYPE":"U","NORAD_CAT_ID":62127,"ELEMENT_SET_NO":999,"REV_AT_EPOCH":7289,"BSTAR":0.00073800129,"MEAN_MOTION_DOT":0.00020107,"MEAN_MOTION_DDOT":0}]
